OBJECT_NAME,OBJECT_ID,EPOCH,MEAN_MOTION,ECCENTRICITY,INCLINATION,RA_OF_ASC_NODE,ARG_OF_PERICENTER,MEAN_ANOMALY,EPHEMERIS_TYPE,CLASSIFICATION_TYPE,NORAD_CAT_ID,ELEMENT_SET_NO,REV_AT_EPOCH,BSTAR,MEAN_MOTION_DOT,MEAN_MOTION_DDOT
CUTE-1 (CO-55),2003-031E,2026-07-23T00:05:36.294720,14.24355144,.00108513,98.6747,212.1136,82.6312,277.6100,0,U,27844,999,19677,.1220184E-3,.238E-5,0
CUBESAT XI-IV (CO-57),2003-031J,2026-07-23T00:14:55.181760,14.23637690,.00107129,98.6778,211.8037,99.0689,261.1702,0,U,27848,999,19647,.10893948E-3,.205E-5,0
CUBESAT XI-V,2005-043F,2026-07-21T08:59:40.719840,14.72712744,.0015344,98.3024,358.7230,97.2573,263.0378,0,U,28895,999,10678,.15413557E-3,.932E-5,0
CUTE-1.7+APD II (CO-65),2008-021C,2026-07-23T02:35:47.334336,15.09750992,.00069686,97.8296,186.2868,265.7589,94.2843,0,U,32785,999,99061,.35921821E-3,.5733E-4,0
CANX-2,2008-021H,2026-07-23T04:09:37.706112,15.05839367,.00086845,97.8656,184.6611,285.1873,74.8392,0,U,32790,999,99022,.25919961E-3,.3699E-4,0
SEEDS II (CO-66),2008-021J,2026-07-22T10:34:46.546464,15.33845449,.00038326,97.7536,203.0544,141.9870,218.1643,0,U,32791,999,99269,.5978764E-3,.19519E-3,0
SWISSCUBE,2009-051B,2026-07-23T03:43:49.742976,14.62541744,.00081093,98.3998,112.6657,98.0034,262.2087,0,U,35932,999,89441,.17352267E-3,.831E-5,0
BEESAT-1,2009-051C,2026-07-22T20:11:41.821728,14.61770632,.00064514,98.3927,111.9069,110.1032,250.0863,0,U,35933,999,89439,.1434567E-3,.667E-5,0
ITUPSAT1,2009-051E,2026-07-22T17:26:18.156192,14.60486457,.00084883,98.4011,110.9439,122.2889,237.9135,0,U,35935,999,89392,.12333947E-3,.55E-5,0
TISAT 1,2010-035E,2026-07-23T07:02:10.948128,15.32974639,.00048506,98.0704,154.0856,104.9298,255.2479,0,U,36799,999,87323,.68646884E-3,.21823E-3,0
STRAND-1,2013-009E,2026-07-23T01:12:19.700064,14.37182344,.00097296,98.3941,23.4053,120.1275,240.0877,0,U,39090,999,70221,.95167118E-4,.241E-5,0
BRITE-AUSTRIA,2013-009F,2026-07-23T00:13:00.491808,14.36554832,.00111494,98.4015,22.5617,129.2260,230.9918,0,U,39091,999,70219,.64070015E-4,.146E-5,0
NEE-01 PEGASO,2013-018B,2026-07-22T20:03:20.143584,14.93816948,.00134607,98.1267,349.1763,51.2724,308.9696,0,U,39151,999,71602,.20250938E-3,.209E-4,0
POPACS 2,2013-055E,2026-07-23T03:08:20.002848,14.92284774,.04139847,80.9907,103.0284,78.4234,286.3140,0,U,39269,999,66857,.40208582E-3,.24522E-3,-.854987E-6
POPACS 3,2013-055F,2026-07-21T22:45:55.106208,14.56772916,.05478787,81.0010,191.4730,324.0661,32.4808,0,U,39270,999,64361,.24503145E-3,.1027E-3,0
ZACUBE-1 (TSHEPISOSAT),2013-066B,2026-07-20T20:47:42.553536,15.01347026,.00440791,97.7999,164.3670,137.0238,223.4444,0,U,39417,999,68578,.14536999E-3,.1847E-4,0
WNISAT-1,2013-066H,2026-07-23T00:47:50.888832,14.58132929,.01642162,97.7245,350.6532,118.7989,242.9814,0,U,39423,999,67195,.18261529E-3,.966E-5,0
TRITON-1,2013-066M,2026-07-23T06:55:34.754880,14.81816807,.00911306,97.8207,113.2691,116.0763,244.9865,0,U,39427,999,67943,.21444276E-3,.1764E-4,0
GOMX-1,2013-066Q,2026-07-23T06:34:12.715392,14.69554635,.01275589,97.6471,42.4595,322.1717,37.0576,0,U,39430,999,67521,.13686331E-3,.867E-5,0
CUBEBUG-2 (LO-74),2013-066AA,2026-07-23T07:11:01.273056,14.94006519,.00554797,97.8916,153.4406,267.8104,91.6762,0,U,39440,999,68238,.2355357E-3,.2525E-4,0
NEE-02 KRYSAOR,2013-066AB,2026-07-23T06:49:09.689952,14.86763677,.00647444,97.8897,143.2466,312.4198,47.1551,0,U,39441,999,68156,.20261932E-3,.1814E-4,0
FUNCUBE-1 (AO-73),2013-066AE,2026-07-23T04:17:58.808832,15.09903824,.00381344,97.8300,176.3916,81.8391,278.7160,0,U,39444,999,68509,.46638869E-3,.7622E-4,0
UWE-3,2013-066AG,2026-07-23T07:21:38.012544,14.97241976,.00478561,97.8729,160.6343,196.8794,163.0837,0,U,39446,999,68298,.26351513E-3,.3059E-4,0
BRITE-CA1 (TORONTO),2014-033L,2026-07-23T07:40:22.306368,14.72735524,.00790711,97.9779,332.5905,160.3248,200.1041,0,U,40020,999,64753,.15678039E-3,.998E-5,0
DUCHIFAT-1,2014-033M,2026-07-22T14:51:14.569632,15.72730714,.00037308,98.0416,267.9836,228.0656,132.0288,0,U,40021,999,66130,.12291282E-2,.168289E-2,0
NANOSATC-BR1,2014-033Q,2026-07-23T04:39:08.571744,15.32526557,.00049413,98.0711,239.7999,77.8706,282.3087,0,U,40024,999,65949,.58293807E-3,.18251E-3,0
QB50P1,2014-033R,2026-07-22T19:10:54.290208,15.18749882,.00105654,98.0975,217.4558,102.9257,257.3156,0,U,40025,999,65843,.41699772E-3,.8602E-4,0
QB50P2,2014-033Y,2026-07-22T18:10:05.495520,15.15578446,.00090136,98.0772,202.8656,62.7755,297.4394,0,U,40032,999,65805,.38192338E-3,.7182E-4,0
PERSEUS-M2,2014-033AD,2026-07-23T07:49:32.549088,14.95598550,.00116983,97.9973,155.6082,173.4988,186.6386,0,U,40037,999,65618,.92189724E-4,.963E-5,0
PERSEUS-M1,2014-033AF,2026-07-23T07:06:21.134880,14.95731721,.00115716,97.9652,149.0258,170.3172,189.8274,0,U,40039,999,65603,.85812917E-4,.896E-5,0
